BEIDOU-2 IGSO-1 (C06)   
1 36828U 10036A   26119.06205814 -.00000064  00000+0  00000+0 0  9991
2 36828  54.2930 163.4039 0058877 224.2001 318.3940  1.00283168 57609
BEIDOU-2 G4 (C04)       
1 37210U 10057A   26119.59166409 -.00000113  00000+0  00000+0 0  9999
2 37210   3.5287  69.2212 0006191 213.9857 307.2577  1.00270470 56805
BEIDOU-2 IGSO-2 (C07)   
1 37256U 10068A   26119.36673412 -.00000229  00000+0  00000+0 0  9991
2 37256  47.6395 272.4344 0053341 211.8256 330.0139  1.00299259 56306
BEIDOU-2 IGSO-3 (C08)   
1 37384U 11013A   26116.76466226 -.00000208  00000+0  00000+0 0  9995
2 37384  62.3425  40.6372 0033799 188.1676   9.3705  1.00280256 55142
BEIDOU-2 IGSO-4 (C09)   
1 37763U 11038A   26118.60233448  .00000007  00000+0  00000+0 0  9992
2 37763  54.5885 166.1276 0158396 231.7989 127.2716  1.00255888 54151
BEIDOU-2 IGSO-5 (C10)   
1 37948U 11073A   26118.89190579 -.00000221  00000+0  00000+0 0  9993
2 37948  47.7700 272.1515 0110729 220.7090 138.5427  1.00260002 52649
BEIDOU-2 G5 (C05)       
1 38091U 12008A   26119.64288432  .00000057  00000+0  00000+0 0  9998
2 38091   3.4550  69.9741 0012171 267.3972 170.4291  1.00274397 51883
BEIDOU-2 M3 (C11)       
1 38250U 12018A   26118.25163303 -.00000068  00000+0  00000+0 0  9994
2 38250  55.8009 306.5572 0019696 277.8908  81.8857  1.86229703 95017
BEIDOU-2 M4 (C12)       
1 38251U 12018B   26118.72081359 -.00000071  00000+0  00000+0 0  9991
2 38251  55.7012 305.7592 0010983 283.6955  76.1797  1.86229316 95022
BEIDOU-2 M6 (C14)       
1 38775U 12050B   26118.43068332 -.00000058  00000+0  00000+0 0  9997
2 38775  56.5031  64.5387 0014473 348.9697  10.9632  1.86230937 92382
BEIDOU-2 G6 (C02)       
1 38953U 12059A   26119.50534448 -.00000175  00000+0  00000+0 0  9999
2 38953   4.3006  74.0286 0010747 315.6158  93.7246  1.00274590 49426
BEIDOU-3S IGSO-1S (C31) 
1 40549U 15019A   26112.98991377 -.00000171  00000+0  00000+0 0  9991
2 40549  49.2998 296.1212 0037208 189.9963 176.4804  1.00261100 40525
BEIDOU-3S M2S (C58)     
1 40748U 15037A   26117.85008735 -.00000067  00000+0  00000+0 0  9994
2 40748  54.9160 303.7779 0007353 270.2829  89.6293  1.86231811 73181
BEIDOU-3S M1S (C57)     
1 40749U 15037B   26119.13740098 -.00000075  00000+0  00000+0 0  9992
2 40749  54.9118 303.7219 0004387  52.3923 307.6400  1.86254944 73211
BEIDOU-3S IGSO-2S (C56) 
1 40938U 15053A   26118.85253253 -.00000182  00000+0  00000+0 0  9999
2 40938  49.3000 259.3658 0063588 190.3319 170.8116  1.00271232 38863
BEIDOU-2 IGSO-6 (C13)   
1 41434U 16021A   26118.74469426 -.00000183  00000+0  00000+0 0  9997
2 41434  60.1616  38.5306 0057984 232.9657 308.3929  1.00268218 36988
BEIDOU-2 G7 (C03)       
1 41586U 16037A   26119.51054449 -.00000354  00000+0  00000+0 0  9993
2 41586   1.6017  68.8529 0007236 351.9328  90.9476  1.00277357  6405
BEIDOU-3 M1 (C19)       
1 43001U 17069A   26118.19609134 -.00000055  00000+0  00000+0 0  9991
2 43001  56.6512  64.7298 0012071 318.4993  41.3745  1.86230985 57670
BEIDOU-3 M2 (C20)       
1 43002U 17069B   26118.13471051 -.00000055  00000+0  00000+0 0  9991
2 43002  56.6504  64.7678 0010132 339.6357  20.2893  1.86230531 57665
BEIDOU-3 M7 (C27)       
1 43107U 18003A   26118.41324815 -.00000073  00000+0  00000+0 0  9992
2 43107  54.3730 304.0491 0005306  83.0077 277.0478  1.86227844 56423
BEIDOU-3 M8 (C28)       
1 43108U 18003B   26117.82184668 -.00000069  00000+0  00000+0 0  9992
2 43108  54.3665 304.0519 0002114 285.2806  74.6927  1.86230714 56422
BEIDOU-3 M4 (C22)       
1 43207U 18018A   26118.26436532 -.00000056  00000+0  00000+0 0  9993
2 43207  56.6102  64.7932 0007828   2.6341 357.3351  1.86231066 55819
BEIDOU-3 M3 (C21)       
1 43208U 18018B   26118.33081600 -.00000057  00000+0  00000+0 0  9995
2 43208  56.6096  64.7951 0009967 330.5076  29.4011  1.86230991 55813
BEIDOU-3 M9 (C29)       
1 43245U 18029A   26118.01145235 -.00000070  00000+0  00000+0 0  9993
2 43245  54.2403 301.7017 0000997  84.3142 275.6896  1.86228173 54969
BEIDOU-3 M10 (C30)      
1 43246U 18029B   26119.01997887 -.00000076  00000+0  00000+0 0  9999
2 43246  54.2368 301.6935 0004828  36.3059 323.7159  1.86228959 54968
BEIDOU-2 IGSO-7 (C16)   
1 43539U 18057A   26118.62091316 -.00000054  00000+0  00000+0 0  9999
2 43539  55.1860 163.4912 0103360 237.6605 151.5978  1.00266415 28639
BEIDOU-3 M5 (C23)       
1 43581U 18062A   26119.24419722  .00000038  00000+0  00000+0 0  9997
2 43581  54.0831 183.9681 0004432 289.2848  70.7432  1.86228891 52728
BEIDOU-3 M6 (C24)       
1 43582U 18062B   26118.57045964  .00000030  00000+0  00000+0 0  9998
2 43582  54.0828 183.9801 0004880  21.2964 338.7959  1.86227778 52712
BEIDOU-3 M12 (C26)      
1 43602U 18067A   26119.58278318  .00000044  00000+0  00000+0 0  9994
2 43602  54.1781 182.6886 0007878  33.4038 326.7252  1.86227801 52215
BEIDOU-3 M11 (C25)      
1 43603U 18067B   26118.64377500  .00000033  00000+0  00000+0 0  9992
2 43603  54.1749 182.6842 0004468  19.8382 340.2531  1.86227214 52224
BEIDOU-3 M13 (C32)      
1 43622U 18072A   26118.59891869 -.00000060  00000+0  00000+0 0  9993
2 43622  56.5838  64.2947 0008787 319.0955  40.8031  1.86230992 51730
BEIDOU-3 M14 (C33)      
1 43623U 18072B   26118.46436510 -.00000059  00000+0  00000+0 0  9996
2 43623  56.5856  64.2934 0006908 342.9993  16.9423  1.86231017 51724
BEIDOU-3 M16 (C35)      
1 43647U 18078A   26118.62047326 -.00000074  00000+0  00000+0 0  9996
2 43647  54.1362 301.7226 0008115  38.4978 321.5506  1.86232357 51232
BEIDOU-3 M15 (C34)      
1 43648U 18078B   26118.21284227 -.00000071  00000+0  00000+0 0  9992
2 43648  54.1316 301.7369 0005198  50.8104 309.2276  1.86232058 51243
BEIDOU-3 G1 (C59)       
1 43683U 18085A   26119.59166409 -.00000107  00000+0  00000+0 0  9992
2 43683   2.9533  98.6611 0007149 334.2475 157.5505  1.00273099 27578
BEIDOU-3 M17 (C36)      
1 43706U 18093A   26119.45080112  .00000040  00000+0  00000+0 0  9993
2 43706  54.1669 183.9499 0009098 291.6241  70.6283  1.86228549 50632
BEIDOU-3 M18 (C37)      
1 43707U 18093B   26117.69944196  .00000018  00000+0  00000+0 0  9994
2 43707  54.1675 184.0013 0007107 324.8924  35.1277  1.86226662 50598
BEIDOU-3 IGSO-1 (C38)   
1 44204U 19023A   26118.46987163 -.00000241  00000+0  00000+0 0  9997
2 44204  58.6298  38.1618 0024418 235.6024 228.3061  1.00254927  6718
BEIDOU-2 G8 (C01)       
1 44231U 19027A   26119.58854407 -.00000248  00000+0  00000+0 0  9996
2 44231   1.5370  74.3853 0011001 280.6351 218.8688  1.00267770 25592
BEIDOU-3 IGSO-2 (C39)   
1 44337U 19035A   26119.51219117 -.00000065  00000+0  00000+0 0  9995
2 44337  55.2363 159.2896 0039429 215.3254 146.8458  1.00281945 25188
BEIDOU-3 M24 (C46)      
1 44542U 19061A   26117.76873312  .00000018  00000+0  00000+0 0  9997
2 44542  54.3942 184.4284 0008057   6.2373 353.8395  1.86228974 44854
BEIDOU-3 M23 (C45)      
1 44543U 19061B   26119.51641766  .00000041  00000+0  00000+0 0  9995
2 44543  54.3929 184.3376 0005090 348.1705  15.5382  1.86227406 44893
BEIDOU-3 IGSO-3 (C40)   
1 44709U 19073A   26116.86055463 -.00000201  00000+0  00000+0 0  9999
2 44709  54.8910 281.4498 0042200 188.8144 171.0242  1.00252491 23940
BEIDOU-3 M22 (C44)      
1 44793U 19078A   26117.60787963 -.00000068  00000+0  00000+0 0  9998
2 44793  53.9831 301.6060 0007316  46.0855 313.9683  1.86226945 43709
BEIDOU-3 M21 (C43)      
1 44794U 19078B   26116.67401466 -.00000060  00000+0  00000+0 0  9998
2 44794  53.9566 301.6014 0005178  43.5795 316.4571  1.86227484 43694
BEIDOU-3 M19 (C41)      
1 44864U 19090A   26119.32853961 -.00000065  00000+0  00000+0 0  9991
2 44864  56.5188  64.4042 0019677 295.9466 240.7288  1.86231425 43327
BEIDOU-3 M20 (C42)      
1 44865U 19090B   26118.77031501 -.00000061  00000+0  00000+0 0  9994
2 44865  56.5199  64.4572 0017346 308.5156 303.4997  1.86231466 43291
BEIDOU-3 G2 (C60)       
1 45344U 20017A   26119.57583390 -.00000141  00000+0  00000+0 0  9994
2 45344   2.7683  46.5825 0002732 351.9744 106.3175  1.00271548 22774
BEIDOU-3 G3 (C61)       
1 45807U 20040A   26119.51054449 -.00000353  00000+0  00000+0 0  9991
2 45807   2.3298  67.3115 0003938 332.2796 112.1992  1.00269341 21585
BEIDOU-3 G4 (C62)       
1 56564U 23066A   26119.58776407 -.00000283  00000+0  00000+0 0  9998
2 56564   0.5526 320.5328 0003039 158.5025  90.1944  1.00271718 10904
BEIDOU-3 M28 (C50)      
1 58654U 23207A   26118.89904458 -.00000064  00000+0  00000+0 0  9996
2 58654  55.7115  63.9651 0004548 324.2062  35.7276  1.86229745 15925
BEIDOU-3 M26 (C48)      
1 58655U 23207B   26118.69653898 -.00000062  00000+0  00000+0 0  9992
2 58655  55.7133  63.9584 0004903 305.5687  54.3504  1.86229743 15908
BEIDOU-3 M25 (C47)      
1 61186U 24168B   26118.47985453 -.00000073  00000+0  00000+0 0  9995
2 61186  54.5186 303.9683 0003264 319.0406  12.7882  1.86230191 10856
BEIDOU-3 M27 (C49)      
1 61187U 24168C   26119.14279495 -.00000076  00000+0  00000+0 0  9996
2 61187  54.5133 303.9284 0002625  39.6367 151.6726  1.86230334  8347
